{"type": "FeatureCollection", "features": [ {"type": "Feature", "properties": {"norad_id": 60989, "name": "SENTINEL-2C", "group": "resource", "lat": -38.64552633012345, "lon": -120.83669482479141, "alt_km": 795.8949346748304, "timestamp": "2025-12-19T16:54:43.909009+00:00", "meta": {"OBJECT_NAME": "SENTINEL-2C", "OBJECT_ID": "2024-157A", "EPOCH": "2025-12-19T04:08:36.032064", "MEAN_MOTION": 14.30819997, "ECCENTRICITY": 0.00012209, "INCLINATION": 98.5677, "RA_OF_ASC_NODE": 65.5625, "ARG_OF_PERICENTER": 96.2932, "MEAN_ANOMALY": 263.839, "EPHEMERIS_TYPE": 0, "CLASSIFICATION_TYPE": "U", "NORAD_CAT_ID": 60989, "ELEMENT_SET_NO": 999, "REV_AT_EPOCH": 6724, "BSTAR": 5.9972626e-05, "MEAN_MOTION_DOT": 1.14e-06, "MEAN_MOTION_DDOT": 0}, "tle": {"line1": "1 60989U 24157A   25353.17263926  .00000114  00000+0  59973-4 0  9997", "line2": "2 60989  98.5677  65.5625 0001220  96.2932 263.8390 14.30819997 67242"}}, "geometry": {"type": "Point", "coordinates": [-120.83669482479141, -38.64552633012345]}}, {"type": "Feature", "properties": {"norad_id": 61735, "name": "IONOSFERA-M 1", "group": "resource", "lat": -74.73369461124638, "lon": -102.19390868258216, "alt_km": 823.4685903312893, "timestamp": "2025-12-19T16:54:43.909020+00:00", "meta": {"OBJECT_NAME": "IONOSFERA-M 1", "OBJECT_ID": "2024-199A", "EPOCH": "2025-12-19T07:08:54.430944", "MEAN_MOTION": 14.22715372, "ECCENTRICITY": 6.451e-05, "INCLINATION": 98.74, "RA_OF_ASC_NODE": 223.0957, "ARG_OF_PERICENTER": 12.6519, "MEAN_ANOMALY": 347.4675, "EPHEMERIS_TYPE": 0, "CLASSIFICATION_TYPE": "U", "NORAD_CAT_ID": 61735, "ELEMENT_SET_NO": 999, "REV_AT_EPOCH": 10212, "BSTAR": 3.7982191e-05, "MEAN_MOTION_DOT": 4.1e-07, "MEAN_MOTION_DDOT": 0}, "tle": {"line1": "1 61735U 24199A   25353.29785221  .00000041  00000+0  37982-4 0  9998", "line2": "2 61735  98.7400 223.0957 0000645  12.6519 347.4675 14.22715372102125"}}, "geometry": {"type": "Point", "coordinates": [-102.19390868258216, -74.73369461124638]}}, {"type": "Feature", "properties": {"norad_id": 61736, "name": "IONOSFERA-M 2", "group": "resource", "lat": 72.38965357490943, "lon": 72.4002357398546, "alt_km": 807.9075261603593, "timestamp": "2025-12-19T16:54:43.909030+00:00", "meta": {"OBJECT_NAME": "IONOSFERA-M 2", "OBJECT_ID": "2024-199B", "EPOCH": "2025-12-19T06:17:30.761376", "MEAN_MOTION": 14.22717559, "ECCENTRICITY": 0.00017833, "INCLINATION": 98.7399, "RA_OF_ASC_NODE": 222.9726, "ARG_OF_PERICENTER": 102.1995, "MEAN_ANOMALY": 257.9383, "EPHEMERIS_TYPE": 0, "CLASSIFICATION_TYPE": "U", "NORAD_CAT_ID": 61736, "ELEMENT_SET_NO": 999, "REV_AT_EPOCH": 10524, "BSTAR": 3.5380918e-05, "MEAN_MOTION_DOT": 3.5e-07, "MEAN_MOTION_DDOT": 0}, "tle": {"line1": "1 61736U 24199B   25353.26216159  .00000035  00000+0  35381-4 0  9999", "line2": "2 61736  98.7399 222.9726 0001783 102.1995 257.9383 14.22717559105248"}}, "geometry": {"type": "Point", "coordinates": [72.4002357398546, 72.38965357490943]}}, {"type": "Feature", "properties": {"norad_id": 63772, "name": "BIOMASS", "group": "resource", "lat": -20.461320683567095, "lon": -178.35268117176454, "alt_km": 674.2977592975667, "timestamp": "2025-12-19T16:54:43.909041+00:00", "meta": {"OBJECT_NAME": "BIOMASS", "OBJECT_ID": "2025-090A", "EPOCH": "2025-12-19T05:33:05.616000", "MEAN_MOTION": 14.67534637, "ECCENTRICITY": 0.00010737, "INCLINATION": 98.07, "RA_OF_ASC_NODE": 178.1465, "ARG_OF_PERICENTER": 79.8322, "MEAN_ANOMALY": 280.3004, "EPHEMERIS_TYPE": 0, "CLASSIFICATION_TYPE": "U", "NORAD_CAT_ID": 63772, "ELEMENT_SET_NO": 999, "REV_AT_EPOCH": 3429, "BSTAR": 0.00014528732, "MEAN_MOTION_DOT": 7.76e-06, "MEAN_MOTION_DDOT": 0}, "tle": {"line1": "1 63772U 25090A   25353.23131500  .00000776  00000+0  14529-3 0  9997", "line2": "2 63772  98.0700 178.1465 0001073  79.8322 280.3004 14.67534637 34296"}}, "geometry": {"type": "Point", "coordinates": [-178.35268117176454, -20.461320683567095]}}, {"type": "Feature", "properties": {"norad_id": 64694, "name": "GOSAT-GW (IBUKI GW)", "group": "resource", "lat": -9.631852293396845, "lon": 107.71627656354379, "alt_km": 673.3171655039814, "timestamp": "2025-12-19T16:54:43.909051+00:00", "meta": {"OBJECT_NAME": "GOSAT-GW (IBUKI GW)", "OBJECT_ID": "2025-141A", "EPOCH": "2025-12-19T06:13:58.726272", "MEAN_MOTION": 14.67563799, "ECCENTRICITY": 0.00014465, "INCLINATION": 98.0433, "RA_OF_ASC_NODE": 288.6545, "ARG_OF_PERICENTER": 84.0351, "MEAN_ANOMALY": 276.1018, "EPHEMERIS_TYPE": 0, "CLASSIFICATION_TYPE": "U", "NORAD_CAT_ID": 64694, "ELEMENT_SET_NO": 999, "REV_AT_EPOCH": 2545, "BSTAR": 8.0558211e-05, "MEAN_MOTION_DOT": 4.09e-06, "MEAN_MOTION_DDOT": 0}, "tle": {"line1": "1 64694U 25141A   25353.25970748  .00000409  00000+0  80558-4 0  9994", "line2": "2 64694  98.0433 288.6545 0001446  84.0351 276.1018 14.67563799 25450"}}, "geometry": {"type": "Point", "coordinates": [107.71627656354379, -9.631852293396845]}}, {"type": "Feature", "properties": {"norad_id": 64876, "name": "IONOSFERA-M 3", "group": "resource", "lat": 61.177944558813685, "lon": 151.2967612962324, "alt_km": 813.9779367450274, "timestamp": "2025-12-19T16:54:43.909061+00:00", "meta": {"OBJECT_NAME": "IONOSFERA-M 3", "OBJECT_ID": "2025-155A", "EPOCH": "2025-12-19T06:13:29.713152", "MEAN_MOTION": 14.21442537, "ECCENTRICITY": 0.00020538, "INCLINATION": 98.5791, "RA_OF_ASC_NODE": 314.9412, "ARG_OF_PERICENTER": 49.5292, "MEAN_ANOMALY": 310.6065, "EPHEMERIS_TYPE": 0, "CLASSIFICATION_TYPE": "U", "NORAD_CAT_ID": 64876, "ELEMENT_SET_NO": 999, "REV_AT_EPOCH": 2084, "BSTAR": 3.8571783e-05, "MEAN_MOTION_DOT": 4.2e-07, "MEAN_MOTION_DDOT": 0}, "tle": {"line1": "1 64876U 25155A   25353.25937168  .00000042  00000+0  38572-4 0  9992", "line2": "2 64876  98.5791 314.9412 0002053  49.5292 310.6065 14.21442537 20845"}}, "geometry": {"type": "Point", "coordinates": [151.2967612962324, 61.177944558813685]}}, {"type": "Feature", "properties": {"norad_id": 64877, "name": "IONOSFERA-M 4", "group": "resource", "lat": -60.66576683707351, "lon": -29.124141901450123, "alt_km": 828.0818090964622, "timestamp": "2025-12-19T16:54:43.909071+00:00", "meta": {"OBJECT_NAME": "IONOSFERA-M 4", "OBJECT_ID": "2025-155B", "EPOCH": "2025-12-19T07:03:58.987872", "MEAN_MOTION": 14.21443724, "ECCENTRICITY": 0.0001449, "INCLINATION": 98.579, "RA_OF_ASC_NODE": 314.8947, "ARG_OF_PERICENTER": 57.0217, "MEAN_ANOMALY": 303.11, "EPHEMERIS_TYPE": 0, "CLASSIFICATION_TYPE": "U", "NORAD_CAT_ID": 64877, "ELEMENT_SET_NO": 999, "REV_AT_EPOCH": 2084, "BSTAR": 3.86025e-05, "MEAN_MOTION_DOT": 4.2e-07, "MEAN_MOTION_DDOT": 0}, "tle": {"line1": "1 64877U 25155B   25353.29443273  .00000042  00000+0  38603-4 0  9991", "line2": "2 64877  98.5790 314.8947 0001449  57.0217 303.1100 14.21443724 20842"}}, "geometry": {"type": "Point", "coordinates": [-29.124141901450123, -60.66576683707351]}}, {"type": "Feature", "properties": {"norad_id": 64899, "name": "MICROCARB", "group": "resource", "lat": -77.19002607063403, "lon": 107.15637124863582, "alt_km": 673.0528481075535, "timestamp": "2025-12-19T16:54:43.909082+00:00", "meta": {"OBJECT_NAME": "MICROCARB", "OBJECT_ID": "2025-156A", "EPOCH": "2025-12-19T04:13:31.325664", "MEAN_MOTION": 14.72067053, "ECCENTRICITY": 0.00174512, "INCLINATION": 98.0019, "RA_OF_ASC_NODE": 68.4182, "ARG_OF_PERICENTER": 125.3542, "MEAN_ANOMALY": 234.9299, "EPHEMERIS_TYPE": 0, "CLASSIFICATION_TYPE": "U", "NORAD_CAT_ID": 64899, "ELEMENT_SET_NO": 999, "REV_AT_EPOCH": 2148, "BSTAR": 9.0323864e-05, "MEAN_MOTION_DOT": 5.19e-06, "MEAN_MOTION_DDOT": 0}, "tle": {"line1": "1 64899U 25156A   25353.17605701  .00000519  00000+0  90324-4 0  9996", "line2": "2 64899  98.0019  68.4182 0017451 125.3542 234.9299 14.72067053 21482"}}, "geometry": {"type": "Point", "coordinates": [107.15637124863582, -77.19002607063403]}}, {"type": "Feature", "properties": {"norad_id": 64900, "name": "CO3D 3", "group": "resource", "lat": 81.74253503899396, "lon": 5.84394897985134, "alt_km": 496.8308603198293, "timestamp": "2025-12-19T16:54:43.909093+00:00", "meta": {"OBJECT_NAME": "CO3D 3", "OBJECT_ID": "2025-156B", "EPOCH": "2025-12-19T07:03:18.489600", "MEAN_MOTION": 15.20199127, "ECCENTRICITY": 0.00013916, "INCLINATION": 97.4345, "RA_OF_ASC_NODE": 69.5675, "ARG_OF_PERICENTER": 80.8271, "MEAN_ANOMALY": 279.3121, "EPHEMERIS_TYPE": 0, "CLASSIFICATION_TYPE": "U", "NORAD_CAT_ID": 64900, "ELEMENT_SET_NO": 999, "REV_AT_EPOCH": 2220, "BSTAR": 0.00028053722, "MEAN_MOTION_DOT": 6.01e-05, "MEAN_MOTION_DDOT": 0}, "tle": {"line1": "1 64900U 25156B   25353.29396400  .00006010  00000+0  28054-3 0  9997", "line2": "2 64900  97.4345  69.5675 0001391  80.8271 279.3121 15.20199127 22209"}}, "geometry": {"type": "Point", "coordinates": [5.84394897985134, 81.74253503899396]}}, {"type": "Feature", "properties": {"norad_id": 64901, "name": "CO3D 4", "group": "resource", "lat": 81.37121192093946, "lon": 10.598279974015846, "alt_km": 497.6670250487241, "timestamp": "2025-12-19T16:54:43.909103+00:00", "meta": {"OBJECT_NAME": "CO3D 4", "OBJECT_ID": "2025-156C", "EPOCH": "2025-12-19T07:03:31.130784", "MEAN_MOTION": 15.20228377, "ECCENTRICITY": 0.00012978, "INCLINATION": 97.4346, "RA_OF_ASC_NODE": 69.5677, "ARG_OF_PERICENTER": 174.2875, "MEAN_ANOMALY": 185.8375, "EPHEMERIS_TYPE": 0, "CLASSIFICATION_TYPE": "U", "NORAD_CAT_ID": 64901, "ELEMENT_SET_NO": 999, "REV_AT_EPOCH": 2220, "BSTAR": 0.00021957229, "MEAN_MOTION_DOT": 4.692e-05, "MEAN_MOTION_DDOT": 0}, "tle": {"line1": "1 64901U 25156C   25353.29411031  .00004692  00000+0  21957-3 0  9995", "line2": "2 64901  97.4346  69.5677 0001297 174.2875 185.8375 15.20228377 22208"}}, "geometry": {"type": "Point", "coordinates": [10.598279974015846, 81.37121192093946]}}]}